HORYU-4                 
1 41340U 16012D   20179.60352979  .00000310  00000-0  16675-4 0  9995
2 41340  31.0050 267.1492 0013934 250.1042 109.8092 15.01509759239407
E-ST@R-II               
1 41459U 16025D   20180.08999736  .00000827  00000-0  45522-4 0  9998
2 41459  98.1071 290.6348 0165346 175.3965 184.8827 15.06442447229046
AAUSAT 4                
1 41460U 16025E   20180.07837465  .00001367  00000-0  70204-4 0  9994
2 41460  98.1024 292.9875 0154103 164.1181 196.4993 15.08757313229249
BEESAT-4                
1 41619U 16040W   20179.86512524  .00000949  00000-0  41948-4 0  9996
2 41619  97.3187 239.1531 0012304 136.6373 223.5835 15.24035912210981
CANX-7                  
1 41788U 16059F   20179.99368422  .00005140  00000-0  70837-3 0  9999
2 41788  98.2561 268.0956 0023136 256.1816 103.6821 14.78495702201372
RAVAN                   
1 41849U 16067B   20179.75864104 -.00000126  00000-0 -53650-5 0  9995
2 41849  97.9340 289.7878 0008004 205.8046 154.2778 14.98564596198162
CELTEE 1                
1 41850U 16067C   20179.76335696  .00000090  00000-0  13042-4 0  9995
2 41850  97.9279 287.4886 0008333 206.5745 153.5050 14.97184668198047
OPTICUBE 04             
1 41851U 16067D   20179.76233231  .00000037  00000-0  85526-5 0  9996
2 41851  97.9268 287.1011 0008337 208.7929 151.2833 14.96924832198021
AEROCUBE 8D             
1 41852U 16067E   20180.11276192  .00000712  00000-0  67305-4 0  9995
2 41852  97.9282 287.2925 0008960 205.7804 154.2971 14.96916175198054
AEROCUBE 8C             
1 41853U 16067F   20179.74347106 -.00000420  00000-0 -31263-4 0  9999
2 41853  97.9280 286.8224 0009117 211.8730 148.1940 14.96881788197992
PROMETHEUS 2-1          
1 41854U 16067G   20179.77771986  .00000788  00000-0  73383-4 0  9994
2 41854  97.9288 287.1915 0009630 207.6385 152.4326 14.97202776198016
PROMETHEUS 2-3          
1 41855U 16067H   20179.71125598  .00000780  00000-0  72653-4 0  9992
2 41855  97.9290 287.1572 0009794 208.3864 151.6825 14.97212271198005
INS-1B                  
1 41954U 17008G   20179.84656585  .00000808  00000-0  35420-4 0  9999
2 41954  97.3536 244.0610 0007276 262.8756  97.1655 15.24803029186959
BGUSAT                  
1 41999U 17008BD  20179.75732923  .00001401  00000-0  54730-4 0  9994
2 41999  97.3652 248.1756 0006058 273.9250  86.1297 15.27540575186522
DIDO-2                  
1 42000U 17008BE  20179.74590101  .00000527  00000-0  24289-4 0  9991
2 42000  97.3544 244.4648 0006727 287.4380  72.6122 15.24490210186335
PEASSS                  
1 42015U 17008BV  20179.84675773  .00000732  00000-0  31564-4 0  9999
2 42015  97.3569 246.1853 0004641 293.2121  66.8628 15.25635769186939
AL-FARABI 1             
1 42016U 17008BW  20179.86217971  .00000991  00000-0  40761-4 0  9990
2 42016  97.3597 247.2618 0004473 291.6853  68.3909 15.26482377187115
NAYIF-1 (EO-88)         
1 42017U 17008BX  20180.16837383  .00000975  00000-0  40078-4 0  9994
2 42017  97.3593 247.5743 0004502 289.1478  70.9273 15.26524475187188
UCLSAT                  
1 42765U 17036A   20179.79712486  .00000724  00000-0  33169-4 0  9993
2 42765  97.2999 233.7610 0011046 359.3637   0.7584 15.23547647168150
LITUANICASAT-2          
1 42768U 17036D   20179.70482248  .00001357  00000-0  58594-4 0  9999
2 42768  97.3054 233.6592 0013977 347.0566  13.0311 15.24109037167404
AALTO-1                 
1 42775U 17036L   20179.77563960  .00000482  00000-0  24168-4 0  9993
2 42775  97.2973 231.5285 0013389 350.7412   9.3575 15.21856263167244
URSA MAIOR              
1 42776U 17036M   20180.09241961  .00000536  00000-0  26388-4 0  9991
2 42776  97.2985 232.1249 0013153 349.3493  10.7463 15.22040847167300
COMPASS 2               
1 42777U 17036N   20180.12214749  .00001085  00000-0  47687-4 0  9995
2 42777  97.3044 234.4815 0011647 348.1166  11.9795 15.23955205167420
DIAMOND RED             
1 42783U 17036U   20179.86210429  .00000630  00000-0  29811-4 0  9996
2 42783  97.2998 233.0815 0011802   0.5316 359.5932 15.22855100167334
PEGASUS                 
1 42784U 17036V   20179.89023143  .00000721  00000-0  33332-4 0  9999
2 42784  97.3003 233.5369 0011622 359.3177   0.8042 15.23236407167367
DIAMOND GREEN           
1 42785U 17036W   20179.79518787  .00000638  00000-0  30141-4 0  9994
2 42785  97.3000 233.0523 0011740   1.5286 358.5984 15.22855883167395
DIAMOND BLUE            
1 42786U 17036X   20179.79439447  .00000630  00000-0  29822-4 0  9996
2 42786  97.3000 233.0468 0011588   1.8393 358.2885 15.22855268167390
NUDTSAT                 
1 42787U 17036Y   20179.93819796  .00001215  00000-0  52129-4 0  9998
2 42787  97.3040 235.0023 0012014 354.3465   5.7630 15.24557283167294
SUCHAI                  
1 42788U 17036Z   20179.84502687  .00000879  00000-0  39366-4 0  9990
2 42788  97.3012 234.0908 0011112 358.2177   1.9019 15.23790178167465
SKCUBE                  
1 42789U 17036AA  20179.89218942  .00000819  00000-0  37030-4 0  9994
2 42789  97.3006 233.9861 0011009 358.4118   1.7082 15.23630631167383
VZLUSAT-1               
1 42790U 17036AB  20179.79601347  .00001101  00000-0  47522-4 0  9992
2 42790  97.3032 234.8597 0010433 356.9293   3.1879 15.24541247167427
ROBUSTA-1B              
1 42792U 17036AD  20179.84470290  .00000859  00000-0  38486-4 0  9999
2 42792  97.3009 234.1945 0010620 359.3771   0.7452 15.23819718167407
CICERO 6                
1 42793U 17036AE  20179.70478806  .00000578  00000-0  27370-4 0  9994
2 42793  97.2984 233.4525 0010073   3.1200 357.0098 15.23160316167427
D-SAT                   
1 42794U 17036AF  20179.84228368  .00000178  00000-0  20912-4 0  9997
2 42794  97.4924 211.9838 0125345 331.0031  28.4264 14.91285308164240
CORVUS BC2              
1 42846U 17042X   20179.63404015  .00000181  00000-0  23061-4 0  9996
2 42846  97.5220  62.7334 0008173 240.0390 120.0018 14.92111201160925
CORVUS BC1              
1 42847U 17042Y   20179.89727188  .00000241  00000-0  28845-4 0  9996
2 42847  97.5222  63.1562 0007837 237.8286 122.2173 14.92212551160960
MIRATA                  
1 43015U 17073C   20180.15675082  .00000972  00000-0  80056-4 0  9997
2 43015  97.7189  91.9646 0253792  14.0376 346.7721 14.79676688140805
MAKERSAT 0              
1 43016U 17073D   20179.71533888  .00000697  00000-0  59007-4 0  9991
2 43016  97.7225  91.7188 0256580  16.5466 344.3927 14.79234701140719
DELLINGR (RBLE)         
1 43021U 98067NJ  20180.12021001  .00009763  00000-0  80912-4 0  9997
2 43021  51.6342 225.3024 0001768  72.4377 287.6814 15.70979693148547
AEROCUBE 7B (OCSD B)    
1 43042U 17071F   20179.72488466  .00002616  00000-0  66256-4 0  9997
2 43042  51.6384  16.1577 0005086  86.4277 273.7291 15.43671559143962
AEROCUBE 7C (OCSD C)    
1 43043U 17071G   20179.92265138  .00002654  00000-0  67127-4 0  9999
2 43043  51.6385  15.2434 0005313  90.6166 269.5429 15.43646907143968
CHEFSAT                 
1 43044U 17071H   20179.87849243  .00005684  00000-0  11308-3 0  9994
2 43044  51.6387   0.2270 0004869  97.6084 262.5457 15.48521461144163
ASGARDIA 1              
1 43049U 17071N   20179.72156370  .00002368  00000-0  60805-4 0  9998
2 43049  51.6397  15.4753 0003020 103.4298 256.7025 15.43682637143932
ISARA                   
1 43050U 17071P   20179.80276220  .00004707  00000-0  98467-4 0  9990
2 43050  51.6370   3.3470 0002866 107.5471 252.5830 15.47487418144104
PROPCUBE 2 (FAUNA)      
1 43052U 17071R   20179.83416732  .00002657  00000-0  66123-4 0  9995
2 43052  51.6391  13.2447 0002975 101.6597 258.4723 15.44141483143974
CORVUS BC3              
1 43118U 18004H   20179.67387756  .00000482  00000-0  23260-4 0  9999
2 43118  97.4433 249.8632 0010899  25.6926 334.4850 15.23380926136556
MICROMAS-2A             
1 43131U 18004W   20179.75068969  .00001173  00000-0  49401-4 0  9998
2 43131  97.4482 251.7070 0009660  25.5282 334.6431 15.25319700136664
SPACEBEE-4              
1 43139U 18004AE  20179.84139288  .00001796  00000-0  71346-4 0  9993
2 43139  97.4518 253.0036 0009013  26.6771 333.4929 15.26623600136742
SPACEBEE-3              
1 43140U 18004AF  20179.77966932  .00002404  00000-0  92014-4 0  9993
2 43140  97.4530 253.6444 0008564  26.2227 333.9444 15.27532157136776
SPACEBEE-2              
1 43141U 18004AG  20179.62618185  .00002402  00000-0  91064-4 0  9994
2 43141  97.4544 253.7560 0008529  26.0799 334.0869 15.27839397136763
SPACEBEE-1              
1 43142U 18004AH  20179.85347556  .00002709  00000-0  10126-3 0  9990
2 43142  97.4547 254.2498 0008426  25.2197 334.9452 15.28201551136800
CICERO 7                
1 43143U 18004AJ  20179.81717448  .00001075  00000-0  45488-4 0  9993
2 43143  97.4462 251.9534 0008186  35.7088 324.4695 15.25354351136694
GOMX-4B                 
1 43196U 18015E   20179.59224083  .00000200  00000-0  11097-4 0  9994
2 43196  97.4397 308.0499 0020431  71.0717 289.2732 15.24267671133449
GOMX-4A                 
1 43197U 18015F   20180.08197503  .00000442  00000-0  20835-4 0  9995
2 43197  97.4393 308.6282 0020498  69.8443  44.9709 15.24520459133532
UBAKUSAT                
1 43467U 98067NQ  20180.13277293  .00021390  00000-0  13859-3 0  9993
2 43467  51.6347 226.7449 0002069  38.7693 321.3455 15.75980799121792
CUBERRT                 
1 43546U 98067NU  20179.85771064  .00021440  00000-0  15104-3 0  9994
2 43546  51.6336 227.9479 0002744 103.6915 256.4390 15.74037532111885
TEMPEST-D               
1 43547U 98067NV  20180.09096970  .00003653  00000-0  45808-4 0  9990
2 43547  51.6361 258.1651 0004992  93.5779 266.5786 15.62686926111182
RAINCUBE                
1 43548U 98067NW  20179.86347593  .00021481  00000-0  14663-3 0  9997
2 43548  51.6304 236.1976 0002681 102.8687 257.2612 15.74771726111902
HALOSAT                 
1 43549U 98067NX  20180.18838281  .00019485  00000-0  13802-3 0  9999
2 43549  51.6341 235.4531 0002395 108.8292 251.2967 15.73982435111506
